[{"OBJECT_NAME":"STARLINK-32652","OBJECT_ID":"2024-231S","EPOCH":"2026-01-31T07:09:49.873824","MEAN_MOTION":15.30199535,"ECCENTRICITY":0.0001086,"INCLINATION":53.1584,"RA_OF_ASC_NODE":33.3022,"ARG_OF_PERICENTER":87.7633,"MEAN_ANOMALY":272.3492,"EPHEMERIS_TYPE":0,"CLASSIFICATION_TYPE":"U","NORAD_CAT_ID":62234,"ELEMENT_SET_NO":999,"REV_AT_EPOCH":6603,"BSTAR":0.0006773,"MEAN_MOTION_DOT":0.00019754,"MEAN_MOTION_DDOT":0},{"OBJECT_NAME":"STARLINK-32631","OBJECT_ID":"2024-231T","EPOCH":"2026-01-31T08:21:49.128192","MEAN_MOTION":15.30189203,"ECCENTRICITY":0.00011661,"INCLINATION":53.1627,"RA_OF_ASC_NODE":20.1288,"ARG_OF_PERICENTER":82.6744,"MEAN_ANOMALY":277.439,"EPHEMERIS_TYPE":0,"CLASSIFICATION_TYPE":"U","NORAD_CAT_ID":62235,"ELEMENT_SET_NO":999,"REV_AT_EPOCH":6622,"BSTAR":0.00097708522,"MEAN_MOTION_DOT":0.00028681,"MEAN_MOTION_DDOT":0},{"OBJECT_NAME":"STARLINK-32641","OBJECT_ID":"2024-231U","EPOCH":"2026-01-31T22:54:08.900352","MEAN_MOTION":15.30200052,"ECCENTRICITY":0.00013339,"INCLINATION":53.1619,"RA_OF_ASC_NODE":17.5062,"ARG_OF_PERICENTER":96.5804,"MEAN_ANOMALY":263.5349,"EPHEMERIS_TYPE":0,"CLASSIFICATION_TYPE":"U","NORAD_CAT_ID":62236,"ELEMENT_SET_NO":999,"REV_AT_EPOCH":6631,"BSTAR":0.00077142042,"MEAN_MOTION_DOT":0.00022557,"MEAN_MOTION_DDOT":0},{"OBJECT_NAME":"STARLINK-32632","OBJECT_ID":"2024-231V","EPOCH":"2026-01-31T16:47:49.953408","MEAN_MOTION":15.30196086,"ECCENTRICITY":0.00016043,"INCLINATION":53.1593,"RA_OF_ASC_NODE":31.5413,"ARG_OF_PERICENTER":95.4373,"MEAN_ANOMALY":264.6811,"EPHEMERIS_TYPE":0,"CLASSIFICATION_TYPE":"U","NORAD_CAT_ID":62262,"ELEMENT_SET_NO":999,"REV_AT_EPOCH":6610,"BSTAR":0.00074175644,"MEAN_MOTION_DOT":0.00021671,"MEAN_MOTION_DDOT":0},{"OBJECT_NAME":"STARLINK-11496 [DTC]","OBJECT_ID":"2024-237A","EPOCH":"2026-01-31T17:12:42.020064","MEAN_MOTION":15.70963662,"ECCENTRICITY":0.00018957,"INCLINATION":42.999,"RA_OF_ASC_NODE":279.8107,"ARG_OF_PERICENTER":248.9044,"MEAN_ANOMALY":111.1621,"EPHEMERIS_TYPE":0,"CLASSIFICATION_TYPE":"U","NORAD_CAT_ID":62267,"ELEMENT_SET_NO":999,"REV_AT_EPOCH":6723,"BSTAR":0.0016078163,"MEAN_MOTION_DOT":0.00212314,"MEAN_MOTION_DDOT":0},{"OBJECT_NAME":"STARLINK-11501 [DTC]","OBJECT_ID":"2024-237B","EPOCH":"2026-01-31T17:58:23.220768","MEAN_MOTION":15.70871756,"ECCENTRICITY":0.00034689,"INCLINATION":42.9985,"RA_OF_ASC_NODE":279.1712,"ARG_OF_PERICENTER":289.6916,"MEAN_ANOMALY":70.3577,"EPHEMERIS_TYPE":0,"CLASSIFICATION_TYPE":"U","NORAD_CAT_ID":62268,"ELEMENT_SET_NO":999,"REV_AT_EPOCH":6719,"BSTAR":0.0019520224,"MEAN_MOTION_DOT":0.00258338,"MEAN_MOTION_DDOT":0},{"OBJECT_NAME":"STARLINK-11491 [DTC]","OBJECT_ID":"2024-237C","EPOCH":"2026-01-31T16:19:10.754976","MEAN_MOTION":15.71002724,"ECCENTRICITY":0.00021488,"INCLINATION":42.9975,"RA_OF_ASC_NODE":279.5087,"ARG_OF_PERICENTER":185.616,"MEAN_ANOMALY":174.4684,"EPHEMERIS_TYPE":0,"CLASSIFICATION_TYPE":"U","NORAD_CAT_ID":62269,"ELEMENT_SET_NO":999,"REV_AT_EPOCH":6723,"BSTAR":0.0021046152,"MEAN_MOTION_DOT":0.00280843,"MEAN_MOTION_DDOT":0},{"OBJECT_NAME":"STARLINK-11479 [DTC]","OBJECT_ID":"2024-237D","EPOCH":"2026-01-31T01:26:30.981984","MEAN_MOTION":15.70832401,"ECCENTRICITY":0.00022578,"INCLINATION":43.0003,"RA_OF_ASC_NODE":283.4718,"ARG_OF_PERICENTER":259.0634,"MEAN_ANOMALY":100.9979,"EPHEMERIS_TYPE":0,"CLASSIFICATION_TYPE":"U","NORAD_CAT_ID":62270,"ELEMENT_SET_NO":999,"REV_AT_EPOCH":6713,"BSTAR":0.00043452538,"MEAN_MOTION_DOT":0.00055666,"MEAN_MOTION_DDOT":0},{"OBJECT_NAME":"STARLINK-11489 [DTC]","OBJECT_ID":"2024-237E","EPOCH":"2026-01-31T17:35:38.231232","MEAN_MOTION":15.70893949,"ECCENTRICITY":0.00045933,"INCLINATION":43.0002,"RA_OF_ASC_NODE":279.9377,"ARG_OF_PERICENTER":293.2581,"MEAN_ANOMALY":66.7803,"EPHEMERIS_TYPE":0,"CLASSIFICATION_TYPE":"U","NORAD_CAT_ID":62271,"ELEMENT_SET_NO":999,"REV_AT_EPOCH":6723,"BSTAR":0.001702982,"MEAN_MOTION_DOT":0.00224655,"MEAN_MOTION_DDOT":0},{"OBJECT_NAME":"STARLINK-11494 [DTC]","OBJECT_ID":"2024-237F","EPOCH":"2026-01-31T23:11:17.518272","MEAN_MOTION":15.70866608,"ECCENTRICITY":0.00027025,"INCLINATION":42.9986,"RA_OF_ASC_NODE":278.2323,"ARG_OF_PERICENTER":292.1595,"MEAN_ANOMALY":67.8986,"EPHEMERIS_TYPE":0,"CLASSIFICATION_TYPE":"U","NORAD_CAT_ID":62272,"ELEMENT_SET_NO":999,"REV_AT_EPOCH":6722,"BSTAR":0.0014884861,"MEAN_MOTION_DOT":0.0019533,"MEAN_MOTION_DDOT":0},{"OBJECT_NAME":"STARLINK-11333 [DTC]","OBJECT_ID":"2024-237G","EPOCH":"2026-01-31T23:26:34.819296","MEAN_MOTION":15.70982195,"ECCENTRICITY":0.00024581,"INCLINATION":42.999,"RA_OF_ASC_NODE":278.3183,"ARG_OF_PERICENTER":261.8977,"MEAN_ANOMALY":98.1612,"EPHEMERIS_TYPE":0,"CLASSIFICATION_TYPE":"U","NORAD_CAT_ID":62273,"ELEMENT_SET_NO":999,"REV_AT_EPOCH":6727,"BSTAR":0.0022321167,"MEAN_MOTION_DOT":0.00298262,"MEAN_MOTION_DDOT":0},{"OBJECT_NAME":"STARLINK-11504 [DTC]","OBJECT_ID":"2024-237H","EPOCH":"2026-01-31T23:03:38.554560","MEAN_MOTION":15.70896223,"ECCENTRICITY":0.00022531,"INCLINATION":42.9993,"RA_OF_ASC_NODE":278.1899,"ARG_OF_PERICENTER":260.3149,"MEAN_ANOMALY":99.7464,"EPHEMERIS_TYPE":0,"CLASSIFICATION_TYPE":"U","NORAD_CAT_ID":62274,"ELEMENT_SET_NO":999,"REV_AT_EPOCH":6722,"BSTAR":0.00096634452,"MEAN_MOTION_DOT":0.00125742,"MEAN_MOTION_DDOT":0},{"OBJECT_NAME":"STARLINK-11495 [DTC]","OBJECT_ID":"2024-237J","EPOCH":"2026-01-31T17:43:16.883040","MEAN_MOTION":15.70880894,"ECCENTRICITY":0.00032602,"INCLINATION":42.9996,"RA_OF_ASC_NODE":279.9784,"ARG_OF_PERICENTER":279.7354,"MEAN_ANOMALY":80.3146,"EPHEMERIS_TYPE":0,"CLASSIFICATION_TYPE":"U","NORAD_CAT_ID":62275,"ELEMENT_SET_NO":999,"REV_AT_EPOCH":6718,"BSTAR":0.0019483752,"MEAN_MOTION_DOT":0.00257935,"MEAN_MOTION_DDOT":0},{"OBJECT_NAME":"STARLINK-11498 [DTC]","OBJECT_ID":"2024-237K","EPOCH":"2026-01-31T16:34:28.191648","MEAN_MOTION":15.70942936,"ECCENTRICITY":0.00014288,"INCLINATION":42.9987,"RA_OF_ASC_NODE":279.5933,"ARG_OF_PERICENTER":248.9694,"MEAN_ANOMALY":111.1021,"EPHEMERIS_TYPE":0,"CLASSIFICATION_TYPE":"U","NORAD_CAT_ID":62276,"ELEMENT_SET_NO":999,"REV_AT_EPOCH":6723,"BSTAR":0.0016246786,"MEAN_MOTION_DOT":0.00214411,"MEAN_MOTION_DDOT":0},{"OBJECT_NAME":"STARLINK-11484 [DTC]","OBJECT_ID":"2024-237L","EPOCH":"2026-01-31T09:11:58.167168","MEAN_MOTION":15.70915317,"ECCENTRICITY":0.00012469,"INCLINATION":42.9996,"RA_OF_ASC_NODE":281.5938,"ARG_OF_PERICENTER":289.443,"MEAN_ANOMALY":70.6303,"EPHEMERIS_TYPE":0,"CLASSIFICATION_TYPE":"U","NORAD_CAT_ID":62277,"ELEMENT_SET_NO":999,"REV_AT_EPOCH":6718,"BSTAR":0.0017500373,"MEAN_MOTION_DOT":0.00231193,"MEAN_MOTION_DDOT":0},{"OBJECT_NAME":"STARLINK-11487 [DTC]","OBJECT_ID":"2024-237M","EPOCH":"2026-01-31T17:27:59.500800","MEAN_MOTION":15.70976452,"ECCENTRICITY":0.00017271,"INCLINATION":42.9994,"RA_OF_ASC_NODE":279.8922,"ARG_OF_PERICENTER":261.7981,"MEAN_ANOMALY":98.2691,"EPHEMERIS_TYPE":0,"CLASSIFICATION_TYPE":"U","NORAD_CAT_ID":62278,"ELEMENT_SET_NO":999,"REV_AT_EPOCH":6723,"BSTAR":0.0014956988,"MEAN_MOTION_DOT":0.00197221,"MEAN_MOTION_DDOT":0},{"OBJECT_NAME":"STARLINK-11499 [DTC]","OBJECT_ID":"2024-237N","EPOCH":"2026-01-31T17:44:35.565792","MEAN_MOTION":15.71013881,"ECCENTRICITY":0.00024291,"INCLINATION":42.9993,"RA_OF_ASC_NODE":279.9825,"ARG_OF_PERICENTER":233.5458,"MEAN_ANOMALY":126.5186,"EPHEMERIS_TYPE":0,"CLASSIFICATION_TYPE":"U","NORAD_CAT_ID":62279,"ELEMENT_SET_NO":999,"REV_AT_EPOCH":6716,"BSTAR":0.0020430217,"MEAN_MOTION_DOT":0.00272464,"MEAN_MOTION_DDOT":0},{"OBJECT_NAME":"STARLINK-33548","OBJECT_ID":"2024-237P","EPOCH":"2026-01-31T22:01:24.574656","MEAN_MOTION":15.27602627,"ECCENTRICITY":0.00014617,"INCLINATION":43.0037,"RA_OF_ASC_NODE":53.1714,"ARG_OF_PERICENTER":270.1098,"MEAN_ANOMALY":89.9586,"EPHEMERIS_TYPE":0,"CLASSIFICATION_TYPE":"U","NORAD_CAT_ID":62280,"ELEMENT_SET_NO":999,"REV_AT_EPOCH":6569,"BSTAR":0.0010135339,"MEAN_MOTION_DOT":0.00027752,"MEAN_MOTION_DDOT":0},{"OBJECT_NAME":"STARLINK-33544","OBJECT_ID":"2024-237Q","EPOCH":"2026-01-31T10:45:38.221920","MEAN_MOTION":15.27595588,"ECCENTRICITY":0.00014082,"INCLINATION":42.9998,"RA_OF_ASC_NODE":66.9118,"ARG_OF_PERICENTER":275.6704,"MEAN_ANOMALY":84.3987,"EPHEMERIS_TYPE":0,"CLASSIFICATION_TYPE":"U","NORAD_CAT_ID":62281,"ELEMENT_SET_NO":999,"REV_AT_EPOCH":6549,"BSTAR":0.00089692792,"MEAN_MOTION_DOT":0.00024513,"MEAN_MOTION_DDOT":0},{"OBJECT_NAME":"STARLINK-33560","OBJECT_ID":"2024-237R","EPOCH":"2026-01-31T11:53:53.422944","MEAN_MOTION":15.27591464,"ECCENTRICITY":0.00014763,"INCLINATION":43.0026,"RA_OF_ASC_NODE":66.4071,"ARG_OF_PERICENTER":277.6969,"MEAN_ANOMALY":82.3715,"EPHEMERIS_TYPE":0,"CLASSIFICATION_TYPE":"U","NORAD_CAT_ID":62282,"ELEMENT_SET_NO":999,"REV_AT_EPOCH":6541,"BSTAR":0.0008534667,"MEAN_MOTION_DOT":0.00023306,"MEAN_MOTION_DDOT":0},{"OBJECT_NAME":"STARLINK-33547","OBJECT_ID":"2024-237S","EPOCH":"2026-01-31T03:05:59.544096","MEAN_MOTION":15.27576738,"ECCENTRICITY":9.894e-5,"INCLINATION":43.0045,"RA_OF_ASC_NODE":57.5691,"ARG_OF_PERICENTER":259.9159,"MEAN_ANOMALY":100.1581,"EPHEMERIS_TYPE":0,"CLASSIFICATION_TYPE":"U","NORAD_CAT_ID":62283,"ELEMENT_SET_NO":999,"REV_AT_EPOCH":6557,"BSTAR":0.00081749821,"MEAN_MOTION_DOT":0.00022299,"MEAN_MOTION_DDOT":0},{"OBJECT_NAME":"STARLINK-33563","OBJECT_ID":"2024-237T","EPOCH":"2026-01-31T12:03:08.385696","MEAN_MOTION":15.27587842,"ECCENTRICITY":0.00016011,"INCLINATION":43.0011,"RA_OF_ASC_NODE":66.4518,"ARG_OF_PERICENTER":259.5314,"MEAN_ANOMALY":100.5357,"EPHEMERIS_TYPE":0,"CLASSIFICATION_TYPE":"U","NORAD_CAT_ID":62284,"ELEMENT_SET_NO":999,"REV_AT_EPOCH":6550,"BSTAR":0.00070002724,"MEAN_MOTION_DOT":0.00019056,"MEAN_MOTION_DDOT":0},{"OBJECT_NAME":"STARLINK-33550","OBJECT_ID":"2024-237U","EPOCH":"2026-01-31T11:48:20.391552","MEAN_MOTION":15.27595847,"ECCENTRICITY":0.00015398,"INCLINATION":43.0047,"RA_OF_ASC_NODE":66.3788,"ARG_OF_PERICENTER":274.3944,"MEAN_ANOMALY":85.6731,"EPHEMERIS_TYPE":0,"CLASSIFICATION_TYPE":"U","NORAD_CAT_ID":62285,"ELEMENT_SET_NO":999,"REV_AT_EPOCH":6550,"BSTAR":0.0011159889,"MEAN_MOTION_DOT":0.0003059,"MEAN_MOTION_DDOT":0}]
